     3.00           N                   E                   RINEX VERSION / TYPE
BRD_USR             ESA                 20190108 021756  UTCPGM / RUN BY / DATE
 GAL   5.0250E+01  4.2969E-02 -4.6387E-03  0.0000E+00       IONOSPHERIC CORR
GAUT  0.0000000000E+00 0.000000000E+00  86400 2035 GSTB   0 TIME SYSTEM CORR
GPGA -3.7834979594E-10 1.065814104E-14 172800 2035 GSTB   0 TIME SYSTEM CORR
                                                            END OF HEADER
E07 2019 01 08 00 20 00-1.084232353605E-04-7.119638212316E-12 0.000000000000E+00
     3.400000000000E+01 3.884375000000E+01 3.422999724535E-09-2.827691846064E+00
     1.830980181694E-06 1.374455168843E-04 7.197260856628E-06 5.440610559464E+03
     1.740000000000E+05 3.725290298462E-09 1.243598399996E+00 5.960464477539E-08
     9.523203039403E-01 1.823750000000E+02 1.748883307438E-02-5.630234521867E-09
     6.693135938835E-10 2.580000000000E+02 2.035000000000E+03 0.000000000000E+00
     3.120000000000E+00 0.000000000000E+00 0.000000000000E+00 0.000000000000E+00
     1.748500000000E+05 0.000000000000E+00 0.000000000000E+00 0.000000000000E+00
E05 2019 01 08 00 20 00 1.288938801736E-04-6.551204023708E-12 0.000000000000E+00
     3.400000000000E+01 3.318750000000E+01 3.366925960266E-09-2.027210472082E+00
     1.693144440651E-06 1.369491219521E-04 7.150694727898E-06 5.440614629745E+03
     1.740000000000E+05-1.676380634308E-08 1.243579752180E+00-5.401670932770E-08
     9.522894744047E-01 1.808750000000E+02 1.574902465741E+00-5.604162007271E-09
     6.628847546679E-10 5.210000000000E+02 2.035000000000E+03 0.000000000000E+00
     3.120000000000E+00 0.000000000000E+00-1.164153218269E-09-1.396983861923E-09
     1.748650000000E+05 0.000000000000E+00 0.000000000000E+00 0.000000000000E+00
E07 2019 01 08 00 20 00-1.084228861146E-04-7.133849067031E-12 0.000000000000E+00
     3.400000000000E+01 3.884375000000E+01 3.422999724535E-09-2.827691846064E+00
     1.830980181694E-06 1.374455168843E-04 7.197260856628E-06 5.440610559464E+03
     1.740000000000E+05 3.725290298462E-09 1.243598399996E+00 5.960464477539E-08
     9.523203039403E-01 1.823750000000E+02 1.748883307438E-02-5.630234521867E-09
     6.693135938835E-10 5.210000000000E+02 2.035000000000E+03 0.000000000000E+00
     3.120000000000E+00 0.000000000000E+00 0.000000000000E+00 0.000000000000E+00
     1.748650000000E+05 0.000000000000E+00 0.000000000000E+00 0.000000000000E+00
E12 2019 01 08 00 20 00 5.893091030885E-03 8.432721188001E-11 0.000000000000E+00
     3.400000000000E+01-1.094687500000E+02 3.083699877049E-09-2.156810877727E+00
    -5.181878805161E-06 3.778534010053E-04-6.370246410370E-07 5.440603792191E+03
     1.740000000000E+05-2.793967723846E-08-8.616071179206E-01 2.421438694000E-08
     9.819357828468E-01 3.628750000000E+02-8.960082085555E-01-5.929532703123E-09
    -3.275136422578E-10 5.210000000000E+02 2.035000000000E+03 0.000000000000E+00
     3.120000000000E+00 0.000000000000E+00-1.536682248116E-08-1.583248376846E-08
     1.748950000000E+05 0.000000000000E+00 0.000000000000E+00 0.000000000000E+00
E12 2019 01 08 00 20 00 5.893091089092E-03 8.435563358944E-11 0.000000000000E+00
     3.400000000000E+01-1.094687500000E+02 3.083699877049E-09-2.156810877727E+00
    -5.181878805161E-06 3.778534010053E-04-6.370246410370E-07 5.440603792191E+03
     1.740000000000E+05-2.793967723846E-08-8.616071179206E-01 2.421438694000E-08
     9.819357828468E-01 3.628750000000E+02-8.960082085555E-01-5.929532703123E-09
    -3.275136422578E-10 2.580000000000E+02 2.035000000000E+03 0.000000000000E+00
     3.120000000000E+00 0.000000000000E+00-1.536682248116E-08 0.000000000000E+00
     1.749000000000E+05 0.000000000000E+00 0.000000000000E+00 0.000000000000E+00
E18 2019 01 08 00 20 00 5.623000790365E-03-2.843592028512E-11 0.000000000000E+00
     3.400000000000E+01 1.501562500000E+02 3.585149335860E-09 1.470851094875E+00
     3.309920430183E-06 1.663996520219E-01-6.223097443581E-06 5.289392374039E+03
     1.740000000000E+05 1.624226570129E-06-1.445391837915E+00-5.122274160385E-07
     8.817654151489E-01 4.221562500000E+02 1.439180641776E+00-5.347008438650E-09
    -6.128826718805E-10 2.580000000000E+02 2.035000000000E+03 0.000000000000E+00
     3.120000000000E+00 5.600000000000E+01 1.420266926289E-08 0.000000000000E+00
     1.749500000000E+05 0.000000000000E+00 0.000000000000E+00 0.000000000000E+00
E01 2019 01 08 00 20 00-5.160202854313E-04-8.171241461241E-12 0.000000000000E+00
     3.400000000000E+01 9.912500000000E+01 2.469745731966E-09 6.561632341868E-01
     4.617497324944E-06 1.127971336246E-04 1.277029514313E-05 5.440624462128E+03
     1.740000000000E+05-1.117587089539E-08-2.947129645082E+00-4.097819328308E-08
     9.903142160478E-01 8.209375000000E+01-8.432662184514E-01-5.038781314038E-09
    -3.532289991199E-10 5.210000000000E+02 2.035000000000E+03 0.000000000000E+00
     3.120000000000E+00 0.000000000000E+00-4.423782229424E-09-5.122274160385E-09
     1.749550000000E+05 0.000000000000E+00 0.000000000000E+00 0.000000000000E+00
E18 2019 01 08 00 20 00 5.623002885841E-03-2.845013113983E-11 0.000000000000E+00
     3.400000000000E+01 1.501562500000E+02 3.585149335860E-09 1.470851094875E+00
     3.309920430183E-06 1.663996520219E-01-6.223097443581E-06 5.289392374039E+03
     1.740000000000E+05 1.624226570129E-06-1.445391837915E+00-5.122274160385E-07
     8.817654151489E-01 4.221562500000E+02 1.439180641776E+00-5.347008438650E-09
    -6.128826718805E-10 5.210000000000E+02 2.035000000000E+03 0.000000000000E+00
     3.120000000000E+00 4.550000000000E+02 1.420266926289E-08 1.583248376846E-08
     1.749550000000E+05 0.000000000000E+00 0.000000000000E+00 0.000000000000E+00
E30 2019 01 07 23 50 00 5.206444766372E-03-3.042543994525E-11 0.000000000000E+00
     3.100000000000E+01 1.023750000000E+02 2.553320641768E-09 1.449009600677E+00
     4.764646291733E-06 2.990565262735E-04 1.191347837448E-05 5.440622068405E+03
     1.722000000000E+05 9.499490261078E-08-2.943707711459E+00 7.078051567078E-08
     9.878660299568E-01 9.937500000000E+01 4.947015904441E-01-5.113427280485E-09
    -3.435857402966E-10 5.210000000000E+02 2.035000000000E+03 0.000000000000E+00
     3.120000000000E+00 0.000000000000E+00-3.259629011154E-09-3.958120942116E-09
     1.750750000000E+05 0.000000000000E+00 0.000000000000E+00 0.000000000000E+00
E05 2019 01 08 00 20 00 1.288934145123E-04-6.551204023708E-12 0.000000000000E+00
     3.400000000000E+01 3.318750000000E+01 3.366925960266E-09-2.027210472082E+00
     1.693144440651E-06 1.369491219521E-04 7.150694727898E-06 5.440614629745E+03
     1.740000000000E+05-1.676380634308E-08 1.243579752180E+00-5.401670932770E-08
     9.522894744047E-01 1.808750000000E+02 1.574902465741E+00-5.604162007271E-09
     6.628847546679E-10 2.580000000000E+02 2.035000000000E+03 0.000000000000E+00
     3.120000000000E+00 0.000000000000E+00-1.164153218269E-09 0.000000000000E+00
     1.751000000000E+05 0.000000000000E+00 0.000000000000E+00 0.000000000000E+00
E30 2019 01 07 23 50 00 5.206445115618E-03-3.039701823582E-11 0.000000000000E+00
     3.100000000000E+01 1.023750000000E+02 2.553320641768E-09 1.449009600677E+00
     4.764646291733E-06 2.990565262735E-04 1.191347837448E-05 5.440622068405E+03
     1.722000000000E+05 9.499490261078E-08-2.943707711459E+00 7.078051567078E-08
     9.878660299568E-01 9.937500000000E+01 4.947015904441E-01-5.113427280485E-09
    -3.435857402966E-10 2.580000000000E+02 2.035000000000E+03 0.000000000000E+00
     3.120000000000E+00 0.000000000000E+00-3.259629011154E-09 0.000000000000E+00
     1.751000000000E+05 0.000000000000E+00 0.000000000000E+00 0.000000000000E+00
E05 2019 01 08 00 20 00 1.288938801736E-04-6.551204023708E-12 0.000000000000E+00
     3.400000000000E+01 3.318750000000E+01 3.366925960266E-09-2.027210472082E+00
     1.693144440651E-06 1.369491219521E-04 7.150694727898E-06 5.440614629745E+03
     1.740000000000E+05-1.676380634308E-08 1.243579752180E+00-5.401670932770E-08
     9.522894744047E-01 1.808750000000E+02 1.574902465741E+00-5.604162007271E-09
     6.628847546679E-10 5.210000000000E+02 2.035000000000E+03 0.000000000000E+00
     3.120000000000E+00 0.000000000000E+00-1.164153218269E-09-1.396983861923E-09
     1.751650000000E+05 0.000000000000E+00 0.000000000000E+00 0.000000000000E+00
E09 2019 01 08 00 20 00 6.564892421011E-03-1.132605120802E-11 0.000000000000E+00
     3.400000000000E+01 2.268750000000E+01 3.246920961577E-09 2.345962100909E-01
     1.143664121628E-06 2.446223516017E-04 7.646158337593E-06 5.440611742020E+03
     1.740000000000E+05 2.793967723846E-08 1.234962071893E+00-7.450580596924E-09
     9.582941752675E-01 1.749062500000E+02 9.677033981022E-02-5.483799850847E-09
     6.518128649079E-10 2.580000000000E+02 2.035000000000E+03 0.000000000000E+00
     3.120000000000E+00 0.000000000000E+00-3.259629011154E-09 0.000000000000E+00
     1.752500000000E+05 0.000000000000E+00 0.000000000000E+00 0.000000000000E+00
E09 2019 01 08 00 20 00 6.564892304596E-03-1.132605120802E-11 0.000000000000E+00
     3.400000000000E+01 2.268750000000E+01 3.246920961577E-09 2.345962100909E-01
     1.143664121628E-06 2.446223516017E-04 7.646158337593E-06 5.440611742020E+03
     1.740000000000E+05 2.793967723846E-08 1.234962071893E+00-7.450580596924E-09
     9.582941752675E-01 1.749062500000E+02 9.677033981022E-02-5.483799850847E-09
     6.518128649079E-10 5.210000000000E+02 2.035000000000E+03 0.000000000000E+00
     3.120000000000E+00 0.000000000000E+00-3.259629011154E-09-3.725290298462E-09
     1.752550000000E+05 0.000000000000E+00 0.000000000000E+00 0.000000000000E+00
